KUIPER-00061            
1 64521U 25134X   25337.26855221  .00006748  00000+0  90788-3 0  9993
2 64521  51.9027 294.4368 0005091 325.0980  34.9648 14.80180834 25853
KUIPER-00062            
1 64522U 25134Y   25337.19411765 -.00014833  00000+0 -16967-2 0  9999
2 64522  51.8979 300.0944 0006723 346.3128  13.7653 14.85037876 25781
KUIPER-00063            
1 64523U 25134Z   25337.31833011  .00008748  00000+0  11663-2 0  9990
2 64523  51.9026 304.1415 0003056 297.3521  62.7131 14.80249668 25731
KUIPER-00064            
1 64524U 25134AA  25337.26243781  .00008259  00000+0  11109-2 0  9996
2 64524  51.9037 301.8976 0008103  36.1615 323.9894 14.79922984 25769
KUIPER-00065            
1 64525U 25134AB  25337.18811588  .00005360  00000+0  78590-3 0  9992
2 64525  51.9022 307.3673 0010603 323.8873  36.1371 14.76838713 25664
KUIPER-00066            
1 64526U 25134AC  25337.24018991  .00027069  00000+0  12385-2 0  9996
2 64526  51.8867 279.4290 0001540  59.3685 300.7446 15.20329749 26070
KUIPER-00069            
1 64816U 25151A   25337.28146294  .00007195  00000+0  97133-3 0  9992
2 64816  51.9021 346.9274 0006573 327.3865  32.6690 14.79944853 22481
KUIPER-00070            
1 64817U 25151B   25337.28817394  .00007392  00000+0  99572-3 0  9997
2 64817  51.9007  11.8517 0010175 293.4733  66.5160 14.79989770 22142
