<?xml version="1.0" encoding="UTF-8"?>
<ndm xmlns:xsi="http://www.w3.org/2001/XMLSchema-instance" xsi:noNamespaceSchemaLocation="https://sanaregistry.org/r/ndmxml_unqualified/ndmxml-2.0.0-master-2.0.xsd">
<omm id="CCSDS_OMM_VERS" version="2.0">
<header><CREATION_DATE/><ORIGINATOR/></header><body><segment><metadata><OBJECT_NAME>KUIPER-00061</OBJECT_NAME><OBJECT_ID>2025-134X</OBJECT_ID><CENTER_NAME>EARTH</CENTER_NAME><REF_FRAME>TEME</REF_FRAME><TIME_SYSTEM>UTC</TIME_SYSTEM><MEAN_ELEMENT_THEORY>SGP4</MEAN_ELEMENT_THEORY></metadata><data><meanElements><EPOCH>2025-12-03T06:26:42.910944</EPOCH><MEAN_MOTION>14.80180834</MEAN_MOTION><ECCENTRICITY>.00050912</ECCENTRICITY><INCLINATION>51.9027</INCLINATION><RA_OF_ASC_NODE>294.4368</RA_OF_ASC_NODE><ARG_OF_PERICENTER>325.0980</ARG_OF_PERICENTER><MEAN_ANOMALY>34.9648</MEAN_ANOMALY></meanElements><tleParameters><EPHEMERIS_TYPE>0</EPHEMERIS_TYPE><CLASSIFICATION_TYPE>U</CLASSIFICATION_TYPE><NORAD_CAT_ID>64521</NORAD_CAT_ID><ELEMENT_SET_NO>999</ELEMENT_SET_NO><REV_AT_EPOCH>2585</REV_AT_EPOCH><BSTAR>.9078834E-3</BSTAR><MEAN_MOTION_DOT>.6748E-4</MEAN_MOTION_DOT><MEAN_MOTION_DDOT>0</MEAN_MOTION_DDOT></tleParameters></data></segment></body></omm>
<omm id="CCSDS_OMM_VERS" version="2.0">
<header><CREATION_DATE/><ORIGINATOR/></header><body><segment><metadata><OBJECT_NAME>KUIPER-00062</OBJECT_NAME><OBJECT_ID>2025-134Y</OBJECT_ID><CENTER_NAME>EARTH</CENTER_NAME><REF_FRAME>TEME</REF_FRAME><TIME_SYSTEM>UTC</TIME_SYSTEM><MEAN_ELEMENT_THEORY>SGP4</MEAN_ELEMENT_THEORY></metadata><data><meanElements><EPOCH>2025-12-03T04:39:31.764960</EPOCH><MEAN_MOTION>14.85037876</MEAN_MOTION><ECCENTRICITY>.00067233</ECCENTRICITY><INCLINATION>51.8979</INCLINATION><RA_OF_ASC_NODE>300.0944</RA_OF_ASC_NODE><ARG_OF_PERICENTER>346.3128</ARG_OF_PERICENTER><MEAN_ANOMALY>13.7653</MEAN_ANOMALY></meanElements><tleParameters><EPHEMERIS_TYPE>0</EPHEMERIS_TYPE><CLASSIFICATION_TYPE>U</CLASSIFICATION_TYPE><NORAD_CAT_ID>64522</NORAD_CAT_ID><ELEMENT_SET_NO>999</ELEMENT_SET_NO><REV_AT_EPOCH>2578</REV_AT_EPOCH><BSTAR>-.16966518E-2</BSTAR><MEAN_MOTION_DOT>-.14833E-3</MEAN_MOTION_DOT><MEAN_MOTION_DDOT>0</MEAN_MOTION_DDOT></tleParameters></data></segment></body></omm>
<omm id="CCSDS_OMM_VERS" version="2.0">
<header><CREATION_DATE/><ORIGINATOR/></header><body><segment><metadata><OBJECT_NAME>KUIPER-00063</OBJECT_NAME><OBJECT_ID>2025-134Z</OBJECT_ID><CENTER_NAME>EARTH</CENTER_NAME><REF_FRAME>TEME</REF_FRAME><TIME_SYSTEM>UTC</TIME_SYSTEM><MEAN_ELEMENT_THEORY>SGP4</MEAN_ELEMENT_THEORY></metadata><data><meanElements><EPOCH>2025-12-03T07:38:23.721504</EPOCH><MEAN_MOTION>14.80249668</MEAN_MOTION><ECCENTRICITY>.00030562</ECCENTRICITY><INCLINATION>51.9026</INCLINATION><RA_OF_ASC_NODE>304.1415</RA_OF_ASC_NODE><ARG_OF_PERICENTER>297.3521</ARG_OF_PERICENTER><MEAN_ANOMALY>62.7131</MEAN_ANOMALY></meanElements><tleParameters><EPHEMERIS_TYPE>0</EPHEMERIS_TYPE><CLASSIFICATION_TYPE>U</CLASSIFICATION_TYPE><NORAD_CAT_ID>64523</NORAD_CAT_ID><ELEMENT_SET_NO>999</ELEMENT_SET_NO><REV_AT_EPOCH>2573</REV_AT_EPOCH><BSTAR>.11663157E-2</BSTAR><MEAN_MOTION_DOT>.8748E-4</MEAN_MOTION_DOT><MEAN_MOTION_DDOT>0</MEAN_MOTION_DDOT></tleParameters></data></segment></body></omm>
<omm id="CCSDS_OMM_VERS" version="2.0">
<header><CREATION_DATE/><ORIGINATOR/></header><body><segment><metadata><OBJECT_NAME>KUIPER-00064</OBJECT_NAME><OBJECT_ID>2025-134AA</OBJECT_ID><CENTER_NAME>EARTH</CENTER_NAME><REF_FRAME>TEME</REF_FRAME><TIME_SYSTEM>UTC</TIME_SYSTEM><MEAN_ELEMENT_THEORY>SGP4</MEAN_ELEMENT_THEORY></metadata><data><meanElements><EPOCH>2025-12-03T06:17:54.626784</EPOCH><MEAN_MOTION>14.79922984</MEAN_MOTION><ECCENTRICITY>.00081036</ECCENTRICITY><INCLINATION>51.9037</INCLINATION><RA_OF_ASC_NODE>301.8976</RA_OF_ASC_NODE><ARG_OF_PERICENTER>36.1615</ARG_OF_PERICENTER><MEAN_ANOMALY>323.9894</MEAN_ANOMALY></meanElements><tleParameters><EPHEMERIS_TYPE>0</EPHEMERIS_TYPE><CLASSIFICATION_TYPE>U</CLASSIFICATION_TYPE><NORAD_CAT_ID>64524</NORAD_CAT_ID><ELEMENT_SET_NO>999</ELEMENT_SET_NO><REV_AT_EPOCH>2576</REV_AT_EPOCH><BSTAR>.11109463E-2</BSTAR><MEAN_MOTION_DOT>.8259E-4</MEAN_MOTION_DOT><MEAN_MOTION_DDOT>0</MEAN_MOTION_DDOT></tleParameters></data></segment></body></omm>
<omm id="CCSDS_OMM_VERS" version="2.0">
<header><CREATION_DATE/><ORIGINATOR/></header><body><segment><metadata><OBJECT_NAME>KUIPER-00065</OBJECT_NAME><OBJECT_ID>2025-134AB</OBJECT_ID><CENTER_NAME>EARTH</CENTER_NAME><REF_FRAME>TEME</REF_FRAME><TIME_SYSTEM>UTC</TIME_SYSTEM><MEAN_ELEMENT_THEORY>SGP4</MEAN_ELEMENT_THEORY></metadata><data><meanElements><EPOCH>2025-12-03T04:30:53.212032</EPOCH><MEAN_MOTION>14.76838713</MEAN_MOTION><ECCENTRICITY>.00106037</ECCENTRICITY><INCLINATION>51.9022</INCLINATION><RA_OF_ASC_NODE>307.3673</RA_OF_ASC_NODE><ARG_OF_PERICENTER>323.8873</ARG_OF_PERICENTER><MEAN_ANOMALY>36.1371</MEAN_ANOMALY></meanElements><tleParameters><EPHEMERIS_TYPE>0</EPHEMERIS_TYPE><CLASSIFICATION_TYPE>U</CLASSIFICATION_TYPE><NORAD_CAT_ID>64525</NORAD_CAT_ID><ELEMENT_SET_NO>999</ELEMENT_SET_NO><REV_AT_EPOCH>2566</REV_AT_EPOCH><BSTAR>.78589663E-3</BSTAR><MEAN_MOTION_DOT>.536E-4</MEAN_MOTION_DOT><MEAN_MOTION_DDOT>0</MEAN_MOTION_DDOT></tleParameters></data></segment></body></omm>
<omm id="CCSDS_OMM_VERS" version="2.0">
<header><CREATION_DATE/><ORIGINATOR/></header><body><segment><metadata><OBJECT_NAME>KUIPER-00066</OBJECT_NAME><OBJECT_ID>2025-134AC</OBJECT_ID><CENTER_NAME>EARTH</CENTER_NAME><REF_FRAME>TEME</REF_FRAME><TIME_SYSTEM>UTC</TIME_SYSTEM><MEAN_ELEMENT_THEORY>SGP4</MEAN_ELEMENT_THEORY></metadata><data><meanElements><EPOCH>2025-12-03T05:45:52.408224</EPOCH><MEAN_MOTION>15.20329749</MEAN_MOTION><ECCENTRICITY>.00015402</ECCENTRICITY><INCLINATION>51.8867</INCLINATION><RA_OF_ASC_NODE>279.4290</RA_OF_ASC_NODE><ARG_OF_PERICENTER>59.3685</ARG_OF_PERICENTER><MEAN_ANOMALY>300.7446</MEAN_ANOMALY></meanElements><tleParameters><EPHEMERIS_TYPE>0</EPHEMERIS_TYPE><CLASSIFICATION_TYPE>U</CLASSIFICATION_TYPE><NORAD_CAT_ID>64526</NORAD_CAT_ID><ELEMENT_SET_NO>999</ELEMENT_SET_NO><REV_AT_EPOCH>2607</REV_AT_EPOCH><BSTAR>.12384603E-2</BSTAR><MEAN_MOTION_DOT>.27069E-3</MEAN_MOTION_DOT><MEAN_MOTION_DDOT>0</MEAN_MOTION_DDOT></tleParameters></data></segment></body></omm>
<omm id="CCSDS_OMM_VERS" version="2.0">
<header><CREATION_DATE/><ORIGINATOR/></header><body><segment><metadata><OBJECT_NAME>KUIPER-00069</OBJECT_NAME><OBJECT_ID>2025-151A</OBJECT_ID><CENTER_NAME>EARTH</CENTER_NAME><REF_FRAME>TEME</REF_FRAME><TIME_SYSTEM>UTC</TIME_SYSTEM><MEAN_ELEMENT_THEORY>SGP4</MEAN_ELEMENT_THEORY></metadata><data><meanElements><EPOCH>2025-12-03T06:45:18.398016</EPOCH><MEAN_MOTION>14.79944853</MEAN_MOTION><ECCENTRICITY>.00065739</ECCENTRICITY><INCLINATION>51.9021</INCLINATION><RA_OF_ASC_NODE>346.9274</RA_OF_ASC_NODE><ARG_OF_PERICENTER>327.3865</ARG_OF_PERICENTER><MEAN_ANOMALY>32.6690</MEAN_ANOMALY></meanElements><tleParameters><EPHEMERIS_TYPE>0</EPHEMERIS_TYPE><CLASSIFICATION_TYPE>U</CLASSIFICATION_TYPE><NORAD_CAT_ID>64816</NORAD_CAT_ID><ELEMENT_SET_NO>999</ELEMENT_SET_NO><REV_AT_EPOCH>2248</REV_AT_EPOCH><BSTAR>.97132669E-3</BSTAR><MEAN_MOTION_DOT>.7195E-4</MEAN_MOTION_DOT><MEAN_MOTION_DDOT>0</MEAN_MOTION_DDOT></tleParameters></data></segment></body></omm>
<omm id="CCSDS_OMM_VERS" version="2.0">
<header><CREATION_DATE/><ORIGINATOR/></header><body><segment><metadata><OBJECT_NAME>KUIPER-00070</OBJECT_NAME><OBJECT_ID>2025-151B</OBJECT_ID><CENTER_NAME>EARTH</CENTER_NAME><REF_FRAME>TEME</REF_FRAME><TIME_SYSTEM>UTC</TIME_SYSTEM><MEAN_ELEMENT_THEORY>SGP4</MEAN_ELEMENT_THEORY></metadata><data><meanElements><EPOCH>2025-12-03T06:54:58.228416</EPOCH><MEAN_MOTION>14.79989770</MEAN_MOTION><ECCENTRICITY>.00101753</ECCENTRICITY><INCLINATION>51.9007</INCLINATION><RA_OF_ASC_NODE>11.8517</RA_OF_ASC_NODE><ARG_OF_PERICENTER>293.4733</ARG_OF_PERICENTER><MEAN_ANOMALY>66.5160</MEAN_ANOMALY></meanElements><tleParameters><EPHEMERIS_TYPE>0</EPHEMERIS_TYPE><CLASSIFICATION_TYPE>U</CLASSIFICATION_TYPE><NORAD_CAT_ID>64817</NORAD_CAT_ID><ELEMENT_SET_NO>999</ELEMENT_SET_NO><REV_AT_EPOCH>2214</REV_AT_EPOCH><BSTAR>.99571758E-3</BSTAR><MEAN_MOTION_DOT>.7392E-4</MEAN_MOTION_DOT><MEAN_MOTION_DDOT>0</MEAN_MOTION_DDOT></tleParameters></data></segment></body></omm>

</ndm>
